[{"OBJECT_NAME":"COSMOS 2517 (GEO-IK 2)","OBJECT_ID":"2016-034A","EPOCH":"2026-03-09T22:46:47.568288","MEAN_MOTION":13.85906021,"ECCENTRICITY":9.478e-5,"INCLINATION":99.193,"RA_OF_ASC_NODE":79.5998,"ARG_OF_PERICENTER":99.0909,"MEAN_ANOMALY":261.0354,"EPHEMERIS_TYPE":0,"CLASSIFICATION_TYPE":"U","NORAD_CAT_ID":41579,"ELEMENT_SET_NO":999,"REV_AT_EPOCH":49388,"BSTAR":5.6006133e-5,"MEAN_MOTION_DOT":2.1e-7,"MEAN_MOTION_DDOT":0},{"OBJECT_NAME":"SL-8 R\/B","OBJECT_ID":"1991-013B","EPOCH":"2026-03-09T22:05:08.054304","MEAN_MOTION":13.80614488,"ECCENTRICITY":0.00637813,"INCLINATION":82.8223,"RA_OF_ASC_NODE":263.2693,"ARG_OF_PERICENTER":19.9547,"MEAN_ANOMALY":340.4084,"EPHEMERIS_TYPE":0,"CLASSIFICATION_TYPE":"U","NORAD_CAT_ID":21131,"ELEMENT_SET_NO":999,"REV_AT_EPOCH":76437,"BSTAR":5.2138787e-5,"MEAN_MOTION_DOT":7.1e-7,"MEAN_MOTION_DDOT":0}]
